STARLINK-32353          
1 61587U 24187P   26068.42205386  .00017951  00000+0  61662-3 0  9997
2 61587  53.1583  66.1995 0001186 101.2461 258.8673 15.30205817 78984
SCS-01 D                
1 63985U 25100D   26068.75607686  .00032471  00000+0  10528-2 0  9990
2 63985  97.3730 145.4097 0006346 266.2302  93.8214 15.31902149 45621
